{
  "norad_id": 65628,
  "name": "STARLINK-35128",
  "history": [
    {
      "epoch": "2026-03-28T15:33:48.451680",
      "apogee_km": 476.0283786520131,
      "perigee_km": 474.40276342216293,
      "latitude_deg": -41.31427639135035,
      "longitude_deg": 85.05383519991301,
      "semi_major_axis_km": 6853.352571037088,
      "eccentricity": 0.0001186,
      "inclination_deg": 53.1587,
      "raan_deg": 219.0267,
      "arg_perigee_deg": 64.3632,
      "mean_anomaly_deg": 295.7492,
      "mean_motion_rev_day": 15.30199832
    }
  ]
}